IRIDIUM 144             
1 43249U 18030A   24226.38300070  .00000107  00000+0  31310-4 0  9990
2 43249  86.3975 211.5643 0002075  83.7759 276.3673 14.34218325333700
IRIDIUM 149             
1 43250U 18030B   24226.04050240  .00000003  00000+0 -61191-5 0  9993
2 43250  86.3978 211.6822 0001951  87.7454 272.3965 14.34217430333675
IRIDIUM 157             
1 43251U 18030C   24226.40837282  .00000046  00000+0  93272-5 0  9994
2 43251  86.3977 211.5665 0002373  95.4716 264.6751 14.34217797333702
IRIDIUM 140             
1 43252U 18030D   24226.42740001  .00000051  00000+0  11123-4 0  9999
2 43252  86.3976 211.5728 0002237  78.3375 281.8071 14.34217575333768
IRIDIUM 145             
1 43253U 18030E   24226.41470752  .00000014  00000+0 -20354-5 0  9999
2 43253  86.3980 211.5523 0001802  83.7389 276.4012 14.34221735333699
IRIDIUM 146             
1 43254U 18030F   24226.32591496  .00000451  00000+0  15390-3 0  9995
2 43254  86.3976 211.6034 0002126  85.7390 274.4049 14.34221231333696
IRIDIUM 148             
1 43255U 18030G   24226.22443373  .00000156  00000+0  48571-4 0  9995
2 43255  86.3977 211.6785 0002212  92.2632 267.8817 14.34218230333716
IRIDIUM 142             
1 43256U 18030H   24226.47179734  .00000084  00000+0  23089-4 0  9997
2 43256  86.3974 211.4888 0001932  85.1659 274.9757 14.34218130333715
